{
    "links": {
        "self": "http://www.neowsapp.com/rest/v1/neo/3553667?api_key=iIulBulltgU6a56xZRHN4H3l9WmuAYTsLGpBGhQ2"
    },
    "id": "3553667",
    "neo_reference_id": "3553667",
    "name": "(2010 XZ58)",
    "designation": "2010 XZ58",
    "nasa_jpl_url": "http://ssd.jpl.nasa.gov/sbdb.cgi?sstr=3553667",
    "absolute_magnitude_h": 23.5,
    "estimated_diameter": {
        "kilometers": {
            "estimated_diameter_min": 0.0530340723,
            "estimated_diameter_max": 0.1185877909
        },
        "meters": {
            "estimated_diameter_min": 53.0340723319,
            "estimated_diameter_max": 118.5877908577
        },
        "miles": {
            "estimated_diameter_min": 0.0329538346,
            "estimated_diameter_max": 0.0736870142
        },
        "feet": {
            "estimated_diameter_min": 173.9963058693,
            "estimated_diameter_max": 389.0675677576
        }
    },
    "is_potentially_hazardous_asteroid": false,
    "close_approach_data": [
        {
            "close_approach_date": "1945-01-04",
            "close_approach_date_full": "1945-Jan-04 00:50",
            "epoch_date_close_approach": -788656200000,
            "relative_velocity": {
                "kilometers_per_second": "21.9397451992",
                "kilometers_per_hour": "78983.0827169922",
                "miles_per_hour": "49077.0160360111"
            },
            "miss_distance": {
                "astronomical": "0.4305318667",
                "lunar": "167.4768961463",
                "kilometers": "64406650.225443929",
                "miles": "40020436.6777830602"
            },
            "orbiting_body": "Earth"
        },
        {
            "close_approach_date": "1949-12-15",
            "close_approach_date_full": "1949-Dec-15 21:12",
            "epoch_date_close_approach": -632544480000,
            "relative_velocity": {
                "kilometers_per_second": "13.8632124074",
                "kilometers_per_hour": "49907.5646665352",
                "miles_per_hour": "31010.619834048"
            },
            "miss_distance": {
                "astronomical": "0.0721829096",
                "lunar": "28.0791518344",
                "kilometers": "10798409.526562552",
                "miles": "6709820.5412931376"
            },
            "orbiting_body": "Earth"
        },
        {
            "close_approach_date": "2010-07-29",
            "close_approach_date_full": "2010-Jul-29 13:30",
            "epoch_date_close_approach": 1280410200000,
            "relative_velocity": {
                "kilometers_per_second": "9.3219677882",
                "kilometers_per_hour": "33559.0840376178",
                "miles_per_hour": "20852.3097454853"
            },
            "miss_distance": {
                "astronomical": "0.4167745003",
                "lunar": "162.1252806167",
                "kilometers": "62348577.515194361",
                "miles": "38741609.5956337418"
            },
            "orbiting_body": "Earth"
        },
        {
            "close_approach_date": "2010-12-10",
            "close_approach_date_full": "2010-Dec-10 19:51",
            "epoch_date_close_approach": 1292010660000,
            "relative_velocity": {
                "kilometers_per_second": "12.6172545919",
                "kilometers_per_hour": "45422.1165308785",
                "miles_per_hour": "28223.536796645"
            },
            "miss_distance": {
                "astronomical": "0.0149458919",
                "lunar": "5.8139519491",
                "kilometers": "2235873.593490253",
                "miles": "1389307.4279533714"
            },
            "orbiting_body": "Earth"
        }
    ],
    "orbital_data": {
        "orbit_id": "11",
        "orbit_determination_date": "2017-04-06 08:55:12",
        "first_observation_date": "2010-12-13",
        "last_observation_date": "2010-12-19",
        "data_arc_in_days": 6,
        "observations_used": 41,
        "orbit_uncertainty": "8",
        "minimum_orbit_intersection": ".00792646",
        "jupiter_tisserand_invariant": "4.656",
        "epoch_osculation": "2455545.5",
        "eccentricity": ".3250712204468749",
        "semi_major_axis": "1.392571081511455",
        "inclination": "19.9371992299288",
        "ascending_node_longitude": "79.94629340826081",
        "orbital_period": "600.2393805712461",
        "perihelion_distance": ".939886300485502",
        "perihelion_argument": "321.2735443436203",
        "aphelion_distance": "1.845255862537408",
        "perihelion_time": "2455509.709815288611",
        "mean_anomaly": "21.46554676875405",
        "mean_motion": ".5997607148957621",
        "equinox": "J2000",
        "orbit_class": {
            "orbit_class_type": "APO",
            "orbit_class_description": "Near-Earth asteroid orbits which cross the Earth’s orbit similar to that of 1862 Apollo",
            "orbit_class_range": "a (semi-major axis) > 1.0 AU; q (perihelion) < 1.017 AU"
        }
    },
    "is_sentry_object": false
}